42810,IRIDIUM 124,2017,99.77,860.0,+,86.44,Active,1,LEO,USA,USA,Commercial/Government,Communications,Falcon,1 42810U 17039H   25105.28109033  .00000350  00000+0  97892-4 0  9990,2 42810  86.4440 109.2800 0002164  96.4436 263.7011 14.43287303413393,14.43287303,0.0002164,LEO
42811,IRIDIUM 128,2017,100.4,860.0,+,86.4,Active,1,LEO,USA,USA,Commercial/Government,Communications,Falcon,1 42811U 17039J   25105.52813380  .00000495  00000+0  16981-3 0  9994,2 42811  86.4033 203.8392 0002142 106.2909 253.8522 14.34218468408689,14.34218468,0.0002142,LEO
42812,IRIDIUM 121,2017,100.4,860.0,+,86.4,Active,1,LEO,USA,USA,Commercial/Government,Communications,Falcon,1 42812U 17039K   25105.41688561  .00000216  00000+0  70144-4 0  9997,2 42812  86.4028 172.4552 0002461  99.7649 260.3824 14.34216519408519,14.34216519,0.0002461,LEO
42955,IRIDIUM 133,2017,100.4,860.0,+,86.4,Active,1,LEO,USA,USA,Commercial/Government,Communications,Falcon,1 42955U 17061A   25105.55984623  .00000440  00000+0  15011-3 0  9993,2 42955  86.4033 203.9328 0002176  97.5350 262.6093 14.34219365393486,14.34219365,0.0002176,LEO
42956,IRIDIUM 100,2017,100.4,860.0,+,86.4,Active,1,LEO,USA,USA,Commercial/Government,Communications,Falcon,1 42956U 17061B   25105.55350353  .00000058  00000+0  13607-4 0  9996,2 42956  86.4033 203.8642 0002085  98.8026 261.3406 14.34217985393501,14.34217985,0.0002085,LEO
42958,IRIDIUM 129,2017,100.4,860.0,+,86.4,Active,1,LEO,USA,USA,Commercial/Government,Communications,Falcon,1 42958U 17061D   25105.54716269  .00000044  00000+0  86973-5 0  9991,2 42958  86.4033 203.9281 0002519  88.6924 271.4561 14.34217423393500,14.34217423,0.0002519,LEO
